OBJECT_NAME,OBJECT_ID,EPOCH,MEAN_MOTION,ECCENTRICITY,INCLINATION,RA_OF_ASC_NODE,ARG_OF_PERICENTER,MEAN_ANOMALY,EPHEMERIS_TYPE,CLASSIFICATION_TYPE,NORAD_CAT_ID,ELEMENT_SET_NO,REV_AT_EPOCH,BSTAR,MEAN_MOTION_DOT,MEAN_MOTION_DDOT
H-2A R/B,2006-002B,2026-07-05T07:28:38.246592,15.18335059,.00501709,98.2591,343.7849,199.7103,160.2191,0,U,28932,999,11227,.63026183E-3,.13303E-3,0
RESURS-DK 1,2006-021A,2026-07-05T08:17:34.291392,15.13295823,.00066986,69.9334,292.5473,282.2262,77.8154,0,U,29228,999,10532,.17161113E-3,.2955E-4,0
CZ-4B R/B,2006-046C,2026-07-05T04:25:32.185056,15.17926951,.0031622,97.5438,230.7362,217.3905,142.5128,0,U,29507,999,7786,.32917235E-3,.6696E-4,0
CZ-2C R/B,2007-010B,2026-07-05T07:20:43.246176,14.20280301,.00580358,98.4113,293.7722,313.0643,46.5684,0,U,31114,999,99641,.72408681E-4,.116E-5,0
COSMO-SKYMED 1,2007-023A,2026-07-05T13:57:22.019040,14.97191220,.00010773,97.8851,18.5928,84.4412,275.6932,0,U,31598,999,3254,.22514894E-3,.2543E-4,0
COSMOS 2428,2007-029A,2026-07-04T15:07:37.068960,14.12929556,.00071506,70.9380,317.8526,101.6390,258.5534,0,U,31792,999,98061,.90552675E-4,.121E-5,0
SL-16 R/B,2007-029B,2026-07-05T08:22:59.265120,14.14851853,.00022922,70.9761,285.0499,260.1290,157.5528,0,U,31793,999,98201,-.80114409E-4,-.203E-5,0
KORONAS-FOTON,2009-003A,2026-07-05T07:58:16.700736,15.46130816,.00125407,82.4302,153.3259,92.1208,268.1477,0,U,33504,999,96390,.364777E-3,.17974E-3,0
CZ-2C R/B,2011-030B,2026-07-05T08:42:44.860608,14.81518958,.00514689,97.8664,141.4223,328.8699,191.0067,0,U,37731,999,80751,.20893871E-3,.1621E-4,0
H-2A R/B,2012-025E,2026-07-05T00:26:11.589216,14.95810124,.00422125,98.4840,162.6353,289.3719,70.2939,0,U,38341,999,76575,.37404067E-3,.418E-4,0
SHIJIAN-16 (SJ-16),2013-057A,2026-07-05T14:30:44.053920,14.92651125,.00161808,74.9743,321.7982,187.9661,172.1273,0,U,39358,999,68909,.18447594E-3,.1877E-4,0
SL-4 R/B,2014-021B,2026-07-05T01:53:40.010784,15.42329510,.00902267,51.6064,123.0971,171.3046,188.9528,0,U,39679,999,67437,.3543544E-3,.17594E-3,0
ALOS-2,2014-029A,2026-07-05T01:29:05.864352,14.79477316,.00016658,97.9228,282.9699,89.5658,270.5745,0,U,39766,999,65422,.80746333E-4,.552E-5,0
YAOGAN-29,2015-069A,2026-07-05T14:18:58.190976,14.83102379,.00015336,98.0017,215.2579,26.7955,333.3338,0,U,41038,999,57335,.84812226E-4,.637E-5,0
ASTRO-H (HITOMI),2016-012A,2026-07-05T12:52:17.881248,15.10603122,.00095515,31.0002,315.6783,77.5428,282.6278,0,U,41337,999,57006,.22622678E-3,.3928E-4,0
HXMT (HUIYAN),2017-034A,2026-07-05T14:48:59.291424,15.18627011,.00327932,43.0141,80.4069,262.4401,97.2722,0,U,42758,999,50046,.26261866E-3,.5372E-4,0
SAOCOM 1A,2018-076A,2026-07-05T15:12:50.719104,14.82164086,.00015628,97.8885,13.1140,81.1310,279.0080,0,U,43641,999,41883,.86225319E-4,.634E-5,0
H-2A R/B,2018-084L,2026-07-05T06:09:43.989696,15.45911088,.00211899,98.8546,69.1024,337.1055,22.9243,0,U,43682,999,42391,.65673446E-3,.32189E-3,0
SAOCOM 1B,2020-059A,2026-07-05T15:57:48.980736,14.82152556,.00015434,97.8888,12.2402,81.2547,278.8841,0,U,46265,999,31622,.61246526E-4,.435E-5,0
CSS (TIANHE),2021-035A,2026-07-05T11:19:17.568768,15.57984335,.00029469,41.4674,210.7645,269.5009,90.5491,0,U,48274,999,29602,.22708907E-3,.17207E-3,0
COSMOS 2550,2021-056A,2026-07-05T14:35:58.083360,15.33759838,.00083996,67.1430,44.1831,272.8247,87.1946,0,U,48865,999,28154,.18859224E-3,.6004E-4,0
CZ-2C R/B,2022-058K,2026-07-05T02:02:19.076064,15.63208442,.00312234,50.1854,70.3043,340.8172,19.1625,0,U,52794,999,22844,.64285807E-3,.61494E-3,0
CZ-2C R/B,2022-132E,2026-07-05T11:28:30.648000,15.73943206,.00116747,97.2892,194.3477,22.8685,337.3097,0,U,54039,999,20882,.59639802E-3,.85367E-3,0
XRISM,2023-137A,2026-07-05T11:17:15.313632,15.12625943,.00077888,31.0013,241.1590,148.5044,211.6062,0,U,57800,999,15563,.31217146E-3,.5692E-4,0
ACS3,2024-077B,2026-07-05T06:52:38.402976,13.95106567,.01116149,97.1713,101.0542,47.5373,313.5164,0,U,59588,999,11056,.45544133E-1,.65195E-3,0
SPACEMOBILE-003,2024-163A,2026-06-26T19:29:47.816736,15.20822722,.0005991,52.9744,265.1828,141.0621,219.0806,0,U,61045,999,9923,.90246E-4,.1689E-4,0
SPACEMOBILE-005,2024-163B,2026-07-05T08:07:55.280064,15.20849837,.00088803,52.9799,225.9069,165.7237,194.4010,0,U,61046,999,10052,.37137002E-3,.7991E-4,0
SPACEMOBILE-001,2024-163C,2026-07-05T08:05:53.355840,15.20848588,.00075832,52.9753,225.6311,163.1082,197.0166,0,U,61047,999,10052,.17752977E-3,.3645E-4,0
SPACEMOBILE-002,2024-163D,2026-07-05T07:42:58.112352,15.20875679,.00065591,52.9734,225.7454,164.5649,195.5546,0,U,61048,999,10052,.48777062E-3,.10607E-3,0
